[
    {
        "Altitude(m)": 712168.6018638674,
        "Argument of Periapsis(deg)": 0.0022780242373254137,
        "Eccentricity": 0.0,
        "Inclination(deg)": 45.0,
        "Latitude(deg)": -31.194510520711294,
        "Longitude(deg)": 57.83917857083435,
        "Mean Anomaly(deg)": -46.7842566705038,
        "RAAN(deg)": 194.9978496117084,
        "Satellite Name": "Constellation 1 877",
        "Satellite Number": 877,
        "Semi-Major Axis(m)": 7083131.272910544,
        "Time(s)": 38
    },
    {
        "Altitude(m)": 712155.0834125082,
        "Argument of Periapsis(deg)": 0.002337972243570819,
        "Eccentricity": 0.0,
        "Inclination(deg)": 45.0,
        "Latitude(deg)": -31.160150455240515,
        "Longitude(deg)": 57.89340521478145,
        "Mean Anomaly(deg)": -46.72355553025392,
        "RAAN(deg)": 194.9977930225428,
        "Satellite Name": "Constellation 1 877",
        "Satellite Number": 877,
        "Semi-Major Axis(m)": 7083131.272910544,
        "Time(s)": 39
    },
    {
        "Altitude(m)": 712141.5592954358,
        "Argument of Periapsis(deg)": 0.0023979202498162246,
        "Eccentricity": 0.0,
        "Inclination(deg)": 45.0,
        "Latitude(deg)": -31.125763731192947,
        "Longitude(deg)": 57.947589909848666,
        "Mean Anomaly(deg)": -46.66285439000397,
        "RAAN(deg)": 194.99773643337724,
        "Satellite Name": "Constellation 1 877",
        "Satellite Number": 877,
        "Semi-Major Axis(m)": 7083131.272910544,
        "Time(s)": 40
    },
    {
        "Altitude(m)": 712128.0295603678,
        "Argument of Periapsis(deg)": 0.00245786825606163,
        "Eccentricity": 0.0,
        "Inclination(deg)": 45.0,
        "Latitude(deg)": -31.091350402752564,
        "Longitude(deg)": 58.001732710879125,
        "Mean Anomaly(deg)": -46.60215324975401,
        "RAAN(deg)": 194.99767984421166,
        "Satellite Name": "Constellation 1 877",
        "Satellite Number": 877,
        "Semi-Major Axis(m)": 7083131.272910544,
        "Time(s)": 41
    },
    {
        "Altitude(m)": 712114.4942550225,
        "Argument of Periapsis(deg)": 0.002517816262307036,
        "Eccentricity": 0.0,
        "Inclination(deg)": 45.0,
        "Latitude(deg)": -31.056910524031277,
        "Longitude(deg)": 58.05583367279735,
        "Mean Anomaly(deg)": -46.541452109504256,
        "RAAN(deg)": 194.9976232550461,
        "Satellite Name": "Constellation 1 877",
        "Satellite Number": 877,
        "Semi-Major Axis(m)": 7083131.272910544,
        "Time(s)": 42
    },
    {
        "Altitude(m)": 712100.9534271344,
        "Argument of Periapsis(deg)": 0.0025777642685524413,
        "Eccentricity": 0.0,
        "Inclination(deg)": 45.0,
        "Latitude(deg)": -31.02244414906859,
        "Longitude(deg)": 58.109892850609214,
        "Mean Anomaly(deg)": -46.480750969254295,
        "RAAN(deg)": 194.9975666658805,
        "Satellite Name": "Constellation 1 877",
        "Satellite Number": 877,
        "Semi-Major Axis(m)": 7083131.272910544,
        "Time(s)": 43
    },
    {
        "Altitude(m)": 712087.4071244552,
        "Argument of Periapsis(deg)": 0.002637712274797847,
        "Eccentricity": 0.0,
        "Inclination(deg)": 45.0,
        "Latitude(deg)": -30.987951331832274,
        "Longitude(deg)": 58.163910131303005,
        "Mean Anomaly(deg)": -46.420049829004334,
        "RAAN(deg)": 194.99751007671495,
        "Satellite Name": "Constellation 1 877",
        "Satellite Number": 877,
        "Semi-Major Axis(m)": 7083131.272910544,
        "Time(s)": 44
    },
    {
        "Altitude(m)": 712073.8553947354,
        "Argument of Periapsis(deg)": 0.0026976602810432526,
        "Eccentricity": 0.0,
        "Inclination(deg)": 45.0,
        "Latitude(deg)": -30.953432126217397,
        "Longitude(deg)": 58.217885906237036,
        "Mean Anomaly(deg)": -46.35934868875447,
        "RAAN(deg)": 194.99745348754936,
        "Satellite Name": "Constellation 1 877",
        "Satellite Number": 877,
        "Semi-Major Axis(m)": 7083131.272910544,
        "Time(s)": 45
    },
    {
        "Altitude(m)": 712060.2982857482,
        "Argument of Periapsis(deg)": 0.0027576082872886585,
        "Eccentricity": 0.0,
        "Inclination(deg)": 45.0,
        "Latitude(deg)": -30.91888658604734,
        "Longitude(deg)": 58.27182006255744,
        "Mean Anomaly(deg)": -46.298647548504604,
        "RAAN(deg)": 194.9973968983838,
        "Satellite Name": "Constellation 1 877",
        "Satellite Number": 877,
        "Semi-Major Axis(m)": 7083131.272910544,
        "Time(s)": 46
    },
    {
        "Altitude(m)": 712046.7358452709,
        "Argument of Periapsis(deg)": 0.0028175562935340644,
        "Eccentricity": 0.0,
        "Inclination(deg)": 45.0,
        "Latitude(deg)": -30.884314765073157,
        "Longitude(deg)": 58.32571265558485,
        "Mean Anomaly(deg)": -46.23794640825464,
        "RAAN(deg)": 194.99734030921826,
        "Satellite Name": "Constellation 1 877",
        "Satellite Number": 877,
        "Semi-Major Axis(m)": 7083131.272910544,
        "Time(s)": 47
    },
    {
        "Altitude(m)": 712033.1681210911,
        "Argument of Periapsis(deg)": 0.00287750429977947,
        "Eccentricity": 0.0,
        "Inclination(deg)": 45.0,
        "Latitude(deg)": -30.84971671697393,
        "Longitude(deg)": 58.379563740716634,
        "Mean Anomaly(deg)": -46.17724526800478,
        "RAAN(deg)": 194.99728372005265,
        "Satellite Name": "Constellation 1 877",
        "Satellite Number": 877,
        "Semi-Major Axis(m)": 7083131.272910544,
        "Time(s)": 48
    },
    {
        "Altitude(m)": 712019.5951610161,
        "Argument of Periapsis(deg)": 0.002937452306024875,
        "Eccentricity": 0.0,
        "Inclination(deg)": 45.0,
        "Latitude(deg)": -30.81509249535645,
        "Longitude(deg)": 58.433373373426505,
        "Mean Anomaly(deg)": -46.11654412775495,
        "RAAN(deg)": 194.9972271308871,
        "Satellite Name": "Constellation 1 877",
        "Satellite Number": 877,
        "Semi-Major Axis(m)": 7083131.272910544,
        "Time(s)": 49
    },
    {
        "Altitude(m)": 712006.0170128458,
        "Argument of Periapsis(deg)": 0.0029974003122702807,
        "Eccentricity": 0.0,
        "Inclination(deg)": 45.0,
        "Latitude(deg)": -30.78044215375541,
        "Longitude(deg)": 58.48714160926343,
        "Mean Anomaly(deg)": -46.05584298750496,
        "RAAN(deg)": 194.99717054172152,
        "Satellite Name": "Constellation 1 877",
        "Satellite Number": 877,
        "Semi-Major Axis(m)": 7083131.272910544,
        "Time(s)": 50
    },
    {
        "Altitude(m)": 711992.4337244078,
        "Argument of Periapsis(deg)": 0.0030573483185156866,
        "Eccentricity": 0.0,
        "Inclination(deg)": 45.0,
        "Latitude(deg)": -30.745765745633516,
        "Longitude(deg)": 58.540868503851,
        "Mean Anomaly(deg)": -45.99514184725503,
        "RAAN(deg)": 194.99711395255596,
        "Satellite Name": "Constellation 1 877",
        "Satellite Number": 877,
        "Semi-Major Axis(m)": 7083131.272910544,
        "Time(s)": 51
    },
    {
        "Altitude(m)": 711978.845343528,
        "Argument of Periapsis(deg)": 0.003117296324761092,
        "Eccentricity": 0.0,
        "Inclination(deg)": 45.0,
        "Latitude(deg)": -30.711063324381517,
        "Longitude(deg)": 58.59455394478965,
        "Mean Anomaly(deg)": -45.93444070700513,
        "RAAN(deg)": 194.99705736339035,
        "Satellite Name": "Constellation 1 877",
        "Satellite Number": 877,
        "Semi-Major Axis(m)": 7083131.272910544,
        "Time(s)": 52
    },
    {
        "Altitude(m)": 711965.251918047,
        "Argument of Periapsis(deg)": 0.0031772443310064975,
        "Eccentricity": 0.0,
        "Inclination(deg)": 45.0,
        "Latitude(deg)": -30.67633494331747,
        "Longitude(deg)": 58.648198324043854,
        "Mean Anomaly(deg)": -45.8737395667553,
        "RAAN(deg)": 194.9970007742248,
        "Satellite Name": "Constellation 1 877",
        "Satellite Number": 877,
        "Semi-Major Axis(m)": 7083131.272910544,
        "Time(s)": 53
    },
    {
        "Altitude(m)": 711951.65349581,
        "Argument of Periapsis(deg)": 0.0032371923372519038,
        "Eccentricity": 0.0,
        "Inclination(deg)": 45.0,
        "Latitude(deg)": -30.64158065568789,
        "Longitude(deg)": 58.701801529359685,
        "Mean Anomaly(deg)": -45.813038426505436,
        "RAAN(deg)": 194.99694418505925,
        "Satellite Name": "Constellation 1 877",
        "Satellite Number": 877,
        "Semi-Major Axis(m)": 7083131.272910544,
        "Time(s)": 54
    },
    {
        "Altitude(m)": 711938.0501246798,
        "Argument of Periapsis(deg)": 0.0032971403434973088,
        "Eccentricity": 0.0,
        "Inclination(deg)": 45.0,
        "Latitude(deg)": -30.60680051466709,
        "Longitude(deg)": 58.7553636166519,
        "Mean Anomaly(deg)": -45.752337286255454,
        "RAAN(deg)": 194.99688759589367,
        "Satellite Name": "Constellation 1 877",
        "Satellite Number": 877,
        "Semi-Major Axis(m)": 7083131.272910544,
        "Time(s)": 55
    },
    {
        "Altitude(m)": 711924.4418525205,
        "Argument of Periapsis(deg)": 0.0033570883497427146,
        "Eccentricity": 0.0,
        "Inclination(deg)": 45.0,
        "Latitude(deg)": -30.571994573357397,
        "Longitude(deg)": 58.80888464190581,
        "Mean Anomaly(deg)": -45.691636146005614,
        "RAAN(deg)": 194.99683100672812,
        "Satellite Name": "Constellation 1 877",
        "Satellite Number": 877,
        "Semi-Major Axis(m)": 7083131.272910544,
        "Time(s)": 56
    }
]